NORAD_CAT_ID,OBJECT_NAME,OBJECT_TYPE,EPOCH,MEAN_MOTION,ECCENTRICITY,INCLINATION,RA_OF_ASC_NODE,ARG_OF_PERICENTER,MEAN_ANOMALY,BSTAR,MEAN_MOTION_DOT,MEAN_MOTION_DDOT,TLE_LINE0,TLE_LINE1,TLE_LINE2,SEMIMAJOR_AXIS,PERIOD,APOGEE,PERIGEE,DECAYED
52549.0,STARLINK-3935,PAYLOAD,2022-10-10 10:28:11,15.08848816,0.0001588999999999,53.217,323.7624,48.8896,311.2233,0.00031951,4.802e-05,0.0,0 STARLINK-3935,1 52549U 22051S   22283.43624301  .00004802  00000-0  31951-3 0  9991,2 52549  53.2170 323.7624 0001589  48.8896 311.2233 15.08848816 23300,6917.853,95.437,540.818,538.619,0.0
52549.0,STARLINK-3935,PAYLOAD,2022-10-10 20:00:30,15.08846172,0.0001764999999999,53.2171,321.9781,45.8563,314.2574,0.00015674,2.208e-05,0.0,0 STARLINK-3935,1 52549U 22051S   22283.83368303  .00002208  00000-0  15674-3 0  9994,2 52549  53.2171 321.9781 0001765  45.8563 314.2574 15.08846172 23369,6917.861999999999,95.437,540.948,538.506,0.0
52549.0,STARLINK-3935,PAYLOAD,2022-10-11 03:57:26,15.08828573,0.0001955999999999,53.2179,320.4927,42.3678,317.7465,-4.8722e-05,-1.063e-05,0.0,0 STARLINK-3935,1 52549U 22051S   22284.16489321 -.00001063  00000-0 -48722-4 0  9996,2 52549  53.2179 320.4927 0001956  42.3678 317.7465 15.08828573 23489,6917.915,95.438,541.133,538.427,0.0
52549.0,STARLINK-3935,PAYLOAD,2022-10-11 08:43:35,15.08830536,0.000175,53.2174,319.6006,46.2905,313.8232,-0.0001122,-2.073e-05,0.0,0 STARLINK-3935,1 52549U 22051S   22284.36361088 -.00002073  00000-0 -11220-3 0  9991,2 52549  53.2174 319.6006 0001750  46.2905 313.8232 15.08830536 23447,6917.909000000002,95.438,540.985,538.564,0.0
52549.0,STARLINK-3935,PAYLOAD,2022-10-12 11:45:10,15.08834771,0.0001838,53.2175,314.545,43.648,316.4657,0.00021258,3.096e-05,0.0,0 STARLINK-3935,1 52549U 22051S   22285.48970144  .00003096  00000-0  21258-3 0  9990,2 52549  53.2175 314.5450 0001838  43.6480 316.4657 15.08834771 23682,6917.896,95.438,541.033,538.49,0.0
52549.0,STARLINK-3935,PAYLOAD,2022-10-13 11:35:57,15.08848844,0.0001895,53.2175,310.0841,42.6957,317.4182,0.00056437,8.707e-05,0.0,0 STARLINK-3935,1 52549U 22051S   22286.48330394  .00008707  00000-0  56437-3 0  9999,2 52549  53.2175 310.0841 0001895  42.6957 317.4182 15.08848844 23767,6917.853,95.437,541.029,538.4069999999998,0.0
52549.0,STARLINK-3935,PAYLOAD,2022-10-14 06:40:34,15.08855611,0.0001898,53.2178,306.5157,46.8236,313.2915,0.00030731,4.608e-05,0.0,0 STARLINK-3935,1 52549U 22051S   22287.27817566  .00004608  00000-0  30731-3 0  9993,2 52549  53.2178 306.5157 0001898  46.8236 313.2915 15.08855611 23958,6917.833000000001,95.437,541.011,538.385,0.0
52549.0,STARLINK-3935,PAYLOAD,2022-10-14 11:26:43,15.08850089,0.000194,53.218,305.6242,45.6042,314.5109,0.00013952,1.934e-05,0.0,0 STARLINK-3935,1 52549U 22051S   22287.47689659  .00001934  00000-0  13952-3 0  9990,2 52549  53.2180 305.6242 0001940  45.6042 314.5109 15.08850089 23915,6917.85,95.437,541.057,538.372,0.0
52549.0,STARLINK-3935,PAYLOAD,2022-10-14 17:48:16,15.08848418,0.0001981,53.2182,304.4353,43.8727,316.2423,5.9504e-05,6.59e-06,0.0,0 STARLINK-3935,1 52549U 22051S   22287.74185520  .00000659  00000-0  59504-4 0  9995,2 52549  53.2182 304.4353 0001981  43.8727 316.2423 15.08848418 24026,6917.855,95.437,541.09,538.349,0.0
52549.0,STARLINK-3935,PAYLOAD,2022-10-15 08:06:44,15.08855065,0.0001781999999999,53.218,301.7581,45.1541,314.9596,0.00029618,4.431e-05,0.0,0 STARLINK-3935,1 52549U 22051S   22288.33800996  .00004431  00000-0  29618-3 0  9996,2 52549  53.2180 301.7581 0001782  45.1541 314.9596 15.08855065 24049,6917.834,95.437,540.932,538.467,0.0
52549.0,STARLINK-3935,PAYLOAD,2022-10-16 03:11:21,15.08836922,0.0001913,53.2182,298.1902,46.1394,313.9756,-0.00031351,-5.274e-05,0.0,0 STARLINK-3935,1 52549U 22051S   22289.13288829 -.00005274  00000-0 -31351-3 0  9995,2 52549  53.2182 298.1902 0001913  46.1394 313.9756 15.08836922 24239,6917.89,95.438,541.078,538.431,0.0
52549.0,STARLINK-3935,PAYLOAD,2022-10-16 07:57:31,15.08830115,0.0001943,53.218,297.2973,45.7669,314.3482,-0.00030808,-5.187e-05,0.0,0 STARLINK-3935,1 52549U 22051S   22289.33161277 -.00005187  00000-0 -30808-3 0  9993,2 52549  53.2180 297.2973 0001943  45.7669 314.3482 15.08830115 24192,6917.911,95.438,541.12,538.431,0.0
52549.0,STARLINK-3935,PAYLOAD,2022-10-16 19:05:13,15.08824827,0.0001966,53.2186,295.2174,44.7135,315.4015,-0.00023533,-4.03e-05,0.0,0 STARLINK-3935,1 52549U 22051S   22289.79530083 -.00004030  00000-0 -23533-3 0  9991,2 52549  53.2186 295.2174 0001966  44.7135 315.4015 15.08824827 24266,6917.927,95.439,541.1519999999998,538.432,0.0
52549.0,STARLINK-3935,PAYLOAD,2022-10-17 01:26:46,15.08828132,0.0002085999999999,53.2175,294.0276,43.4954,316.6202,-0.00013036,-2.362e-05,0.0,0 STARLINK-3935,1 52549U 22051S   22290.06026230 -.00002362  00000-0 -13036-3 0  9990,2 52549  53.2175 294.0276 0002086  43.4954 316.6202 15.08828132 24302,6917.917,95.438,541.225,538.339,0.0
52549.0,STARLINK-3935,PAYLOAD,2022-10-17 17:20:38,15.08838667,0.0001932,53.2178,291.0541,48.8688,311.2471,0.0002281,3.344e-05,0.0,0 STARLINK-3935,1 52549U 22051S   22290.72266297  .00003344  00000-0  22810-3 0  9991,2 52549  53.2178 291.0541 0001932  48.8688 311.2471 15.08838667 24403,6917.884,95.438,541.086,538.413,0.0
52549.0,STARLINK-3935,PAYLOAD,2022-10-18 09:14:29,15.08840802,0.000225,53.217,288.0804,47.6861,312.4322,0.00029583,4.423e-05,0.0,0 STARLINK-3935,1 52549U 22051S   22291.38506606  .00004423  00000-0  29583-3 0  9998,2 52549  53.2170 288.0804 0002250  47.6861 312.4322 15.08840802 24500,6917.878000000002,95.438,541.299,538.186,0.0
52549.0,STARLINK-3935,PAYLOAD,2022-10-18 17:11:25,15.08845113,0.0002055,53.216,286.5939,52.3369,307.7809,0.00028886,4.313e-05,0.0,0 STARLINK-3935,1 52549U 22051S   22291.71626436  .00004313  00000-0  28886-3 0  9992,2 52549  53.2160 286.5939 0002055  52.3369 307.7809 15.08845113 24552,6917.865,95.437,541.151,538.308,0.0
52549.0,STARLINK-3935,PAYLOAD,2022-10-19 05:54:30,15.08836392,0.0002000999999999,53.2166,284.215,48.0524,312.0638,-9.025e-05,-1.724e-05,0.0,0 STARLINK-3935,1 52549U 22051S   22292.24618606 -.00001724  00000-0 -90250-4 0  9991,2 52549  53.2166 284.2150 0002001  48.0524 312.0638 15.08836392 24709,6917.891,95.438,541.141,538.372,0.0
52549.0,STARLINK-3935,PAYLOAD,2022-10-19 09:05:16,15.08838925,0.0002004,53.217,283.62,50.4851,309.6318,0.00010573,1.395e-05,0.0,0 STARLINK-3935,1 52549U 22051S   22292.37866767  .00001395  00000-0  10573-3 0  9999,2 52549  53.2170 283.6200 0002004  50.4851 309.6318 15.08838925 24651,6917.884,95.438,541.135,538.362,0.0
52549.0,STARLINK-3935,PAYLOAD,2022-10-19 20:12:58,15.08846942,0.0002061,53.2173,281.5385,50.7961,309.3214,0.00016864,2.397e-05,0.0,0 STARLINK-3935,1 52549U 22051S   22292.84234418  .00002397  00000-0  16864-3 0  9995,2 52549  53.2173 281.5385 0002061  50.7961 309.3214 15.08846942 24721,6917.859,95.437,541.15,538.298,0.0
52549.0,STARLINK-3935,PAYLOAD,2022-10-20 05:45:16,15.08852711,0.0001982,53.2176,279.7543,50.3233,309.7934,0.00019164,2.764e-05,0.0,0 STARLINK-3935,1 52549U 22051S   22293.23977985  .00002764  00000-0  19164-3 0  9996,2 52549  53.2176 279.7543 0001982  50.3233 309.7934 15.08852711 24788,6917.842,95.437,541.078,538.335,0.0
52549.0,STARLINK-3935,PAYLOAD,2022-10-20 20:03:45,15.08844059,0.000205,53.2175,277.0782,50.3263,309.791,0.00012029,1.627e-05,0.0,0 STARLINK-3935,1 52549U 22051S   22293.83594334  .00001627  00000-0  12029-3 0  9995,2 52549  53.2175 277.0782 0002050  50.3263 309.7910 15.08844059 24941,6917.868,95.437,541.151,538.315,0.0
52549.0,STARLINK-3935,PAYLOAD,2022-10-21 08:46:50,15.08843084,0.000198,53.2176,274.6991,51.1641,308.9528,0.00017677,2.527e-05,0.0,0 STARLINK-3935,1 52549U 22051S   22294.36586375  .00002527  00000-0  17677-3 0  9994,2 52549  53.2176 274.6991 0001980  51.1641 308.9528 15.08843084 24951,6917.871,95.437,541.106,538.366,0.0
52549.0,STARLINK-3935,PAYLOAD,2022-10-22 05:26:50,15.08847786,0.0001963,53.2174,270.8329,50.5435,309.5731,7.7193e-05,9.41e-06,0.0,0 STARLINK-3935,1 52549U 22051S   22295.22697775  .00000941  00000-0  77193-4 0  9995,2 52549  53.2174 270.8329 0001963  50.5435 309.5731 15.08847786 25156,6917.857,95.437,541.08,538.364,0.0
52549.0,STARLINK-3935,PAYLOAD,2022-10-22 08:37:37,15.08845319,0.0002011,53.218,270.2385,48.4508,311.6656,3.0998000000000004e-05,2.05e-06,0.0,0 STARLINK-3935,1 52549U 22051S   22295.35945846  .00000205  00000-0  30998-4 0  9999,2 52549  53.2180 270.2385 0002011  48.4508 311.6656 15.08845319 25106,6917.864000000001,95.437,541.12,538.3380000000002,0.0
52549.0,STARLINK-3935,PAYLOAD,2022-10-22 14:59:09,15.08845816,0.000198,53.2174,269.0492,50.9216,309.1952,0.00011747,1.582e-05,0.0,0 STARLINK-3935,1 52549U 22051S   22295.62441633  .00001582  00000-0  11747-3 0  9993,2 52549  53.2174 269.0492 0001980  50.9216 309.1952 15.08845816 25149,6917.863,95.437,541.097,538.3580000000002,0.0
52549.0,STARLINK-3935,PAYLOAD,2022-10-23 08:28:23,15.08849359,0.0001894,53.2175,265.7783,50.6976,309.4183,0.00011353,1.52e-05,0.0,0 STARLINK-3935,1 52549U 22051S   22296.35305421  .00001520  00000-0  11353-3 0  9993,2 52549  53.2175 265.7783 0001894  50.6976 309.4183 15.08849359 25325,6917.852,95.437,541.0269999999998,538.4069999999998,0.0
52549.0,STARLINK-3935,PAYLOAD,2022-10-24 08:19:10,15.0884727,0.0001983,53.2179,261.3199,44.9277,315.1876,3.1749000000000004e-05,2.17e-06,0.0,0 STARLINK-3935,1 52549U 22051S   22297.34664903  .00000217  00000-0  31749-4 0  9990,2 52549  53.2179 261.3199 0001983  44.9277 315.1876 15.08847270 25403,6917.858,95.437,541.095,538.351,0.0
52549.0,STARLINK-3935,PAYLOAD,2022-10-24 14:40:44,15.08828784,0.0002055,53.2176,260.1279,50.2152,309.9021,-0.00015557,-2.763e-05,0.0,0 STARLINK-3935,1 52549U 22051S   22297.61162069 -.00002763  00000-0 -15557-3 0  9994,2 52549  53.2176 260.1279 0002055  50.2152 309.9021 15.08828784 25445,6917.915,95.438,541.201,538.3580000000002,0.0
